STARLINK-36500          
1 67320U 26002R   26023.85190709 -.00533855  00000+0 -37743-2 0  9996
2 67320  42.9994 221.7884 0001928 316.3225  43.7491 15.74563136  4240
STARLINK-36462          
1 67321U 26002S   26023.91442496  .04661187  00000+0  23124-1 0  9996
2 67321  42.9980 221.3969 0016115 344.5658  15.4719 15.77142339  4197
STARLINK-36434          
1 67322U 26002T   26023.59785661  .00515738  00000+0  31353-2 0  9995
2 67322  42.9983 223.3243 0001842 225.3008 134.7712 15.75215909  4149
STARLINK-36497          
1 67323U 26002U   26023.91408324  .04447874  00000+0  22334-1 0  9997
2 67323  42.9993 221.3920 0013657 345.6968  14.3514 15.77072751  4252
STARLINK-36471          
1 67324U 26002V   26023.84988431  .01459610  00000+0  76769-2 0  9992
2 67324  42.9967 221.7708 0011748 269.1570  90.7954 15.77012322  4186
STARLINK-36473          
1 67325U 26002W   26023.59684180  .00441634  00000+0  27106-2 0  9996
2 67325  42.9981 223.3153 0001828 225.7994 134.2726 15.75204989  4306
STARLINK-36430          
1 67326U 26002X   26023.91297042 -.00373606  00000+0 -25875-2 0  9996
2 67326  43.0010 221.3891 0007469 275.6899  84.3118 15.74541685  4355
STARLINK-36501          
1 67327U 26002Y   26023.84986839  .00187321  00000+0  12096-2 0  9994
2 67327  42.9991 221.7697 0004246 138.9671 221.1518 15.74765594  4182
STARLINK-36489          
1 67328U 26002Z   26023.84918898  .00107552  00000+0  69987-3 0  9995
2 67328  42.9991 221.7653 0007241 123.9967 236.1591 15.74826607  4343
STARLINK-36496          
1 67329U 26002AA  26023.91155418  .00904842  00000+0  48871-2 0  9990
2 67329  42.9990 221.3712 0011055 287.0265  72.9393 15.76814498  4170
STARLINK-36483          
1 67330U 26002AB  26023.91131726  .00392883  00000+0  24887-2 0  9995
2 67330  42.9991 221.3700 0004763 330.6348  29.4253 15.74612052  4357
STARLINK-36494          
1 67331U 26002AC  26023.84885288  .00133179  00000+0  86391-3 0  9997
2 67331  42.9986 221.7612 0005961 124.9437 235.1992 15.74821131  4347
