CCSDS_OMM_VERS = 2.0
CREATION_DATE  = 
ORIGINATOR     = 

OBJECT_NAME    = STARLINK-36500
OBJECT_ID      = 2026-002R
CENTER_NAME    = EARTH
REF_FRAME      = TEME
TIME_SYSTEM    = UTC
MEAN_ELEMENT_THEORY = SGP/SGP4

EPOCH          = 2026-01-23T20:26:44.772576
MEAN_MOTION    = 15.74563136
ECCENTRICITY   = .00019289
INCLINATION    = 42.9994
RA_OF_ASC_NODE = 221.7884
ARG_OF_PERICENTER = 316.3225
MEAN_ANOMALY   = 43.7491

EPHEMERIS_TYPE = 0
CLASSIFICATION_TYPE = U
NORAD_CAT_ID   = 67320
ELEMENT_SET_NO = 999
REV_AT_EPOCH   = 424
BSTAR          = -.37742918E-2
MEAN_MOTION_DOT = -.533855E-2
MEAN_MOTION_DDOT = 0

CCSDS_OMM_VERS = 2.0
CREATION_DATE  = 
ORIGINATOR     = 

OBJECT_NAME    = STARLINK-36462
OBJECT_ID      = 2026-002S
CENTER_NAME    = EARTH
REF_FRAME      = TEME
TIME_SYSTEM    = UTC
MEAN_ELEMENT_THEORY = SGP/SGP4

EPOCH          = 2026-01-23T21:56:46.316544
MEAN_MOTION    = 15.77142339
ECCENTRICITY   = .00161153
INCLINATION    = 42.9980
RA_OF_ASC_NODE = 221.3969
ARG_OF_PERICENTER = 344.5658
MEAN_ANOMALY   = 15.4719

EPHEMERIS_TYPE = 0
CLASSIFICATION_TYPE = U
NORAD_CAT_ID   = 67321
ELEMENT_SET_NO = 999
REV_AT_EPOCH   = 419
BSTAR          = .23124328E-1
MEAN_MOTION_DOT = .4661187E-1
MEAN_MOTION_DDOT = 0

CCSDS_OMM_VERS = 2.0
CREATION_DATE  = 
ORIGINATOR     = 

OBJECT_NAME    = STARLINK-36434
OBJECT_ID      = 2026-002T
CENTER_NAME    = EARTH
REF_FRAME      = TEME
TIME_SYSTEM    = UTC
MEAN_ELEMENT_THEORY = SGP/SGP4

EPOCH          = 2026-01-23T14:20:54.811104
MEAN_MOTION    = 15.75215909
ECCENTRICITY   = .00018421
INCLINATION    = 42.9983
RA_OF_ASC_NODE = 223.3243
ARG_OF_PERICENTER = 225.3008
MEAN_ANOMALY   = 134.7712

EPHEMERIS_TYPE = 0
CLASSIFICATION_TYPE = U
NORAD_CAT_ID   = 67322
ELEMENT_SET_NO = 999
REV_AT_EPOCH   = 414
BSTAR          = .31352903E-2
MEAN_MOTION_DOT = .515738E-2
MEAN_MOTION_DDOT = 0

CCSDS_OMM_VERS = 2.0
CREATION_DATE  = 
ORIGINATOR     = 

OBJECT_NAME    = STARLINK-36497
OBJECT_ID      = 2026-002U
CENTER_NAME    = EARTH
REF_FRAME      = TEME
TIME_SYSTEM    = UTC
MEAN_ELEMENT_THEORY = SGP/SGP4

EPOCH          = 2026-01-23T21:56:16.791936
MEAN_MOTION    = 15.77072751
ECCENTRICITY   = .00136571
INCLINATION    = 42.9993
RA_OF_ASC_NODE = 221.3920
ARG_OF_PERICENTER = 345.6968
MEAN_ANOMALY   = 14.3514

EPHEMERIS_TYPE = 0
CLASSIFICATION_TYPE = U
NORAD_CAT_ID   = 67323
ELEMENT_SET_NO = 999
REV_AT_EPOCH   = 425
BSTAR          = .22333871E-1
MEAN_MOTION_DOT = .4447874E-1
MEAN_MOTION_DDOT = 0

CCSDS_OMM_VERS = 2.0
CREATION_DATE  = 
ORIGINATOR     = 

OBJECT_NAME    = STARLINK-36471
OBJECT_ID      = 2026-002V
CENTER_NAME    = EARTH
REF_FRAME      = TEME
TIME_SYSTEM    = UTC
MEAN_ELEMENT_THEORY = SGP/SGP4

EPOCH          = 2026-01-23T20:23:50.004384
MEAN_MOTION    = 15.77012322
ECCENTRICITY   = .00117481
INCLINATION    = 42.9967
RA_OF_ASC_NODE = 221.7708
ARG_OF_PERICENTER = 269.1570
MEAN_ANOMALY   = 90.7954

EPHEMERIS_TYPE = 0
CLASSIFICATION_TYPE = U
NORAD_CAT_ID   = 67324
ELEMENT_SET_NO = 999
REV_AT_EPOCH   = 418
BSTAR          = .76768752E-2
MEAN_MOTION_DOT = .145961E-1
MEAN_MOTION_DDOT = 0

CCSDS_OMM_VERS = 2.0
CREATION_DATE  = 
ORIGINATOR     = 

OBJECT_NAME    = STARLINK-36473
OBJECT_ID      = 2026-002W
CENTER_NAME    = EARTH
REF_FRAME      = TEME
TIME_SYSTEM    = UTC
MEAN_ELEMENT_THEORY = SGP/SGP4

EPOCH          = 2026-01-23T14:19:27.131520
MEAN_MOTION    = 15.75204989
ECCENTRICITY   = .00018289
INCLINATION    = 42.9981
RA_OF_ASC_NODE = 223.3153
ARG_OF_PERICENTER = 225.7994
MEAN_ANOMALY   = 134.2726

EPHEMERIS_TYPE = 0
CLASSIFICATION_TYPE = U
NORAD_CAT_ID   = 67325
ELEMENT_SET_NO = 999
REV_AT_EPOCH   = 430
BSTAR          = .27105807E-2
MEAN_MOTION_DOT = .441634E-2
MEAN_MOTION_DDOT = 0

CCSDS_OMM_VERS = 2.0
CREATION_DATE  = 
ORIGINATOR     = 

OBJECT_NAME    = STARLINK-36430
OBJECT_ID      = 2026-002X
CENTER_NAME    = EARTH
REF_FRAME      = TEME
TIME_SYSTEM    = UTC
MEAN_ELEMENT_THEORY = SGP/SGP4

EPOCH          = 2026-01-23T21:54:40.644288
MEAN_MOTION    = 15.74541685
ECCENTRICITY   = .00074698
INCLINATION    = 43.0010
RA_OF_ASC_NODE = 221.3891
ARG_OF_PERICENTER = 275.6899
MEAN_ANOMALY   = 84.3118

EPHEMERIS_TYPE = 0
CLASSIFICATION_TYPE = U
NORAD_CAT_ID   = 67326
ELEMENT_SET_NO = 999
REV_AT_EPOCH   = 435
BSTAR          = -.25874514E-2
MEAN_MOTION_DOT = -.373606E-2
MEAN_MOTION_DDOT = 0

CCSDS_OMM_VERS = 2.0
CREATION_DATE  = 
ORIGINATOR     = 

OBJECT_NAME    = STARLINK-36501
OBJECT_ID      = 2026-002Y
CENTER_NAME    = EARTH
REF_FRAME      = TEME
TIME_SYSTEM    = UTC
MEAN_ELEMENT_THEORY = SGP/SGP4

EPOCH          = 2026-01-23T20:23:48.628896
MEAN_MOTION    = 15.74765594
ECCENTRICITY   = .00042463
INCLINATION    = 42.9991
RA_OF_ASC_NODE = 221.7697
ARG_OF_PERICENTER = 138.9671
MEAN_ANOMALY   = 221.1518

EPHEMERIS_TYPE = 0
CLASSIFICATION_TYPE = U
NORAD_CAT_ID   = 67327
ELEMENT_SET_NO = 999
REV_AT_EPOCH   = 418
BSTAR          = .1209596E-2
MEAN_MOTION_DOT = .187321E-2
MEAN_MOTION_DDOT = 0

CCSDS_OMM_VERS = 2.0
CREATION_DATE  = 
ORIGINATOR     = 

OBJECT_NAME    = STARLINK-36489
OBJECT_ID      = 2026-002Z
CENTER_NAME    = EARTH
REF_FRAME      = TEME
TIME_SYSTEM    = UTC
MEAN_ELEMENT_THEORY = SGP/SGP4

EPOCH          = 2026-01-23T20:22:49.927872
MEAN_MOTION    = 15.74826607
ECCENTRICITY   = .00072419
INCLINATION    = 42.9991
RA_OF_ASC_NODE = 221.7653
ARG_OF_PERICENTER = 123.9967
MEAN_ANOMALY   = 236.1591

EPHEMERIS_TYPE = 0
CLASSIFICATION_TYPE = U
NORAD_CAT_ID   = 67328
ELEMENT_SET_NO = 999
REV_AT_EPOCH   = 434
BSTAR          = .69987172E-3
MEAN_MOTION_DOT = .107552E-2
MEAN_MOTION_DDOT = 0

CCSDS_OMM_VERS = 2.0
CREATION_DATE  = 
ORIGINATOR     = 

OBJECT_NAME    = STARLINK-36496
OBJECT_ID      = 2026-002AA
CENTER_NAME    = EARTH
REF_FRAME      = TEME
TIME_SYSTEM    = UTC
MEAN_ELEMENT_THEORY = SGP/SGP4

EPOCH          = 2026-01-23T21:52:38.281152
MEAN_MOTION    = 15.76814498
ECCENTRICITY   = .00110555
INCLINATION    = 42.9990
RA_OF_ASC_NODE = 221.3712
ARG_OF_PERICENTER = 287.0265
MEAN_ANOMALY   = 72.9393

EPHEMERIS_TYPE = 0
CLASSIFICATION_TYPE = U
NORAD_CAT_ID   = 67329
ELEMENT_SET_NO = 999
REV_AT_EPOCH   = 417
BSTAR          = .48870768E-2
MEAN_MOTION_DOT = .904842E-2
MEAN_MOTION_DDOT = 0

CCSDS_OMM_VERS = 2.0
CREATION_DATE  = 
ORIGINATOR     = 

OBJECT_NAME    = STARLINK-36483
OBJECT_ID      = 2026-002AB
CENTER_NAME    = EARTH
REF_FRAME      = TEME
TIME_SYSTEM    = UTC
MEAN_ELEMENT_THEORY = SGP/SGP4

EPOCH          = 2026-01-23T21:52:17.811264
MEAN_MOTION    = 15.74612052
ECCENTRICITY   = .00047634
INCLINATION    = 42.9991
RA_OF_ASC_NODE = 221.3700
ARG_OF_PERICENTER = 330.6348
MEAN_ANOMALY   = 29.4253

EPHEMERIS_TYPE = 0
CLASSIFICATION_TYPE = U
NORAD_CAT_ID   = 67330
ELEMENT_SET_NO = 999
REV_AT_EPOCH   = 435
BSTAR          = .2488654E-2
MEAN_MOTION_DOT = .392883E-2
MEAN_MOTION_DDOT = 0

CCSDS_OMM_VERS = 2.0
CREATION_DATE  = 
ORIGINATOR     = 

OBJECT_NAME    = STARLINK-36494
OBJECT_ID      = 2026-002AC
CENTER_NAME    = EARTH
REF_FRAME      = TEME
TIME_SYSTEM    = UTC
MEAN_ELEMENT_THEORY = SGP/SGP4

EPOCH          = 2026-01-23T20:22:20.888832
MEAN_MOTION    = 15.74821131
ECCENTRICITY   = .00059613
INCLINATION    = 42.9986
RA_OF_ASC_NODE = 221.7612
ARG_OF_PERICENTER = 124.9437
MEAN_ANOMALY   = 235.1992

EPHEMERIS_TYPE = 0
CLASSIFICATION_TYPE = U
NORAD_CAT_ID   = 67331
ELEMENT_SET_NO = 999
REV_AT_EPOCH   = 434
BSTAR          = .86390992E-3
MEAN_MOTION_DOT = .133179E-2
MEAN_MOTION_DDOT = 0

